OBJECT_NAME,OBJECT_ID,EPOCH,MEAN_MOTION,ECCENTRICITY,INCLINATION,RA_OF_ASC_NODE,ARG_OF_PERICENTER,MEAN_ANOMALY,EPHEMERIS_TYPE,CLASSIFICATION_TYPE,NORAD_CAT_ID,ELEMENT_SET_NO,REV_AT_EPOCH,BSTAR,MEAN_MOTION_DOT,MEAN_MOTION_DDOT
GPS BIIR-5  (PRN 22),2000-040A,2026-06-17T17:51:58.533408,2.00557643,.0121038,54.8513,215.1401,302.4756,23.6800,0,U,26407,999,18995,0,.34E-6,0
GPS BIIR-8  (PRN 16),2003-005A,2026-06-17T05:41:05.841024,2.00560527,.01479284,54.8821,214.9670,53.0827,42.5968,0,U,27663,999,17131,0,.41E-6,0
GPS BIIR-11 (PRN 19),2004-009A,2026-06-17T09:42:22.087584,2.00554656,.01161589,54.8295,275.6785,173.0888,196.7015,0,U,28190,999,16295,0,-.37E-6,0
GPS BIIR-13 (PRN 02),2004-045A,2026-06-17T13:11:00.598272,2.00555810,.0169862,55.1353,324.8813,316.4220,222.9263,0,U,28474,999,15843,0,-.85E-6,0
GPS BIIRM-1 (PRN 17),2005-038A,2026-06-17T08:33:38.351232,2.00565592,.0127864,54.8779,273.1707,296.1609,67.8202,0,U,28874,999,15184,0,-.33E-6,0
INMARSAT 4-F2 (SOUTHPAN/PRN 122),2005-044A,2026-06-17T14:56:51.628992,1.00270107,.0002834,5.0965,43.7053,35.7485,194.1178,0,U,28899,999,7552,0,-.268E-5,0
GPS BIIRM-2 (PRN 31),2006-042A,2026-06-17T03:06:21.017952,2.00569795,.01066171,54.7108,151.3412,54.4149,43.9226,0,U,29486,999,14439,0,.46E-6,0
GPS BIIRM-3 (PRN 12),2006-052A,2026-06-16T10:06:35.618112,2.00557832,.00852186,54.9348,214.0365,90.8278,270.2339,0,U,29601,999,14339,0,.54E-6,0
GPS BIIRM-4 (PRN 15),2007-047A,2026-06-16T05:27:46.728288,2.00555202,.01667436,54.0946,80.1052,87.3620,274.5508,0,U,32260,999,13679,0,-.35E-6,0
COSMOS 2433 (720),2007-052A,2026-06-16T21:58:29.316576,2.13104062,.0002487,65.5770,315.9429,193.2709,166.7078,0,U,32275,999,14505,0,-.55E-6,0
COSMOS 2432 (719),2007-052B,2026-06-16T12:23:35.378016,2.13103061,.00076789,65.5946,316.0841,331.5202,26.0613,0,U,32276,999,14506,0,-.55E-6,0
GPS BIIRM-5 (PRN 29),2007-062A,2026-06-16T12:50:22.410240,2.00560015,.00357024,55.0322,274.1789,165.2122,184.0447,0,U,32384,999,13549,0,-.29E-6,0
COSMOS 2434 (721),2007-065A,2026-06-17T03:43:05.101824,2.13101292,.00011976,64.3178,191.9169,336.0402,97.3647,0,U,32393,999,14377,0,.65E-6,0
COSMOS 2436 (723),2007-065C,2026-06-17T19:47:12.543936,2.13100053,.0017252,64.3266,191.9665,353.9090,5.4477,0,U,32395,999,14373,0,.59E-6,0
GPS BIIRM-6 (PRN 07),2008-012A,2026-06-17T03:16:01.746048,2.00572367,.02112575,54.4974,149.9267,247.8479,109.8706,0,U,32711,999,13375,0,.44E-6,0
GPS BIIRM-8 (PRN 05),2009-043A,2026-06-16T06:48:23.933376,2.00554227,.0053768,56.2097,27.4871,83.1336,31.1253,0,U,35752,999,12334,0,-.73E-6,0
COSMOS 2456 (730),2009-070A,2026-06-16T03:42:15.751008,2.13103754,.0004648,65.0107,71.0074,331.0109,212.9328,0,U,36111,999,12840,0,-.23E-6,0
COSMOS 2457 (733),2009-070B,2026-06-17T07:56:12.645024,2.13101088,.000291,64.9969,70.8113,122.4854,11.3241,0,U,36112,999,12843,0,-.23E-6,0
COSMOS 2460 (732),2010-007C,2026-06-13T20:48:05.350176,2.13101719,.00021218,65.4226,314.5793,106.9290,251.4243,0,U,36402,999,12665,0,-.52E-6,0
GPS BIIF-1  (PRN 25),2010-022A,2026-06-16T12:34:16.701888,2.00562332,.01263085,54.2702,208.5888,66.1160,340.2016,0,U,36585,999,11758,0,.55E-6,0
BEIDOU-2 IGSO-1 (C06),2010-036A,2026-06-17T10:03:27.851904,1.00271925,.0059243,54.3019,162.9572,225.3136,135.9154,0,U,36828,999,5810,0,-.85E-6,0
BEIDOU-2 G4 (C04),2010-057A,2026-06-17T15:26:26.951136,1.00270651,.0005296,3.6478,68.9400,196.6539,31.9095,0,U,37210,999,5729,0,-.119E-5,0
BEIDOU-2 IGSO-2 (C07),2010-068A,2026-06-15T20:29:59.130240,1.00282881,.0055883,47.5513,271.8488,212.6776,194.9519,0,U,37256,999,5678,0,-.214E-5,0
BEIDOU-2 IGSO-3 (C08),2011-013A,2026-06-17T15:19:34.540608,1.00267211,.0034561,62.4080,40.1465,184.2780,19.0427,0,U,37384,999,5566,0,-.188E-5,0
GSAT-8 (GAGAN/PRN 127),2011-022A,2026-06-17T20:04:25.892256,1.00271872,.0002181,2.1335,81.8184,199.8074,340.6518,0,U,37605,999,5322,0,.78E-6,0
BEIDOU-2 IGSO-4 (C09),2011-038A,2026-06-16T16:27:02.962080,1.00285273,.01595197,54.6000,165.6770,231.4431,207.9860,0,U,37763,999,5464,0,.19E-6,0
GSAT0101 (GALILEO-PFM),2011-060A,2026-06-16T20:21:41.873184,1.70475567,.0002997,56.9944,341.7701,53.3752,306.6473,0,U,37846,999,9111,0,-.88E-6,0
GSAT0102 (GALILEO-FM2),2011-060B,2026-06-15T14:11:42.824832,1.70475803,.00031675,56.9958,341.8048,14.2663,339.9688,0,U,37847,999,9109,0,-.84E-6,0
COSMOS 2476 (744),2011-064A,2026-06-17T04:56:38.673024,2.13103769,.0022714,65.2698,72.8710,238.8618,300.2068,0,U,37867,999,11376,0,-.21E-6,0
COSMOS 2477 (745),2011-064B,2026-06-17T10:29:38.546016,2.13102918,.0019676,65.2764,72.9425,240.1496,296.6640,0,U,37868,999,11376,0,-.21E-6,0
COSMOS 2475 (743),2011-064C,2026-06-17T12:04:42.790656,2.13101765,.0025515,65.2832,72.9620,253.2487,289.3339,0,U,37869,999,11377,0,-.21E-6,0
